{
  "type": "FeatureCollection",
  "features": [
    {
      "type": "Feature",
      "properties": {
        "norad_id": 39227,
        "name": "ARIRANG-5 (KOMPSAT-5)",
        "group": "resource",
        "lat": -53.13319394628817,
        "lon": -171.2126706360833,
        "alt_km": 559.9404322246719,
        "timestamp": "2025-12-20T07:33:50.460603+00:00",
        "meta_object_name": "ARIRANG-5 (KOMPSAT-5)",
        "meta_object_id": "2013-042A",
        "meta_epoch": "2025-12-19T22:13:32.612160",
        "meta_mean_motion": 15.04538009,
        "meta_eccentricity": 0.00034536,
        "meta_inclination": 97.6152,
        "meta_ra_of_asc_node": 178.1269,
        "meta_arg_of_pericenter": 37.6305,
        "meta_mean_anomaly": 322.5162,
        "meta_ephemeris_type": 0,
        "meta_classification_type": "U",
        "meta_norad_cat_id": 39227,
        "meta_element_set_no": 999,
        "meta_rev_at_epoch": 67690,
        "meta_bstar": 0.0001712888,
        "meta_mean_motion_dot": 2.34e-05,
        "meta_mean_motion_ddot": 0,
        "tle_line1": "1 39227U 13042A   25353.92607190  .00002340  00000+0  17129-3 0  9996",
        "tle_line2": "2 39227  97.6152 178.1269 0003453  37.6305 322.5162 15.04538009676902"
      },
      "geometry": {
        "type": "Point",
        "coordinates": [
          -171.2126706360833,
          -53.13319394628817
        ]
      }
    },
    {
      "type": "Feature",
      "properties": {
        "norad_id": 39418,
        "name": "SKYSAT-A",
        "group": "resource",
        "lat": 27.03094990106371,
        "lon": -131.89918601442963,
        "alt_km": 522.0609502372627,
        "timestamp": "2025-12-20T07:33:50.460614+00:00",
        "meta_object_name": "SKYSAT-A",
        "meta_object_id": "2013-066C",
        "meta_epoch": "2025-12-19T21:21:27.283968",
        "meta_mean_motion": 15.11652126,
        "meta_eccentricity": 0.00212405,
        "meta_inclination": 97.4098,
        "meta_ra_of_asc_node": 43.8813,
        "meta_arg_of_pericenter": 210.6261,
        "meta_mean_anomaly": 149.3731,
        "meta_ephemeris_type": 0,
        "meta_classification_type": "U",
        "meta_norad_cat_id": 39418,
        "meta_element_set_no": 999,
        "meta_rev_at_epoch": 66138,
        "meta_bstar": 0.00017646303,
        "meta_mean_motion_dot": 2.952e-05,
        "meta_mean_motion_ddot": 0,
        "tle_line1": "1 39418U 13066C   25353.88989912  .00002952  00000+0  17646-3 0  9997",
        "tle_line2": "2 39418  97.4098  43.8813 0021240 210.6261 149.3731 15.11652126661380"
      },
      "geometry": {
        "type": "Point",
        "coordinates": [
          -131.89918601442963,
          27.03094990106371
        ]
      }
    },
    {
      "type": "Feature",
      "properties": {
        "norad_id": 39419,
        "name": "DUBAISAT-2",
        "group": "resource",
        "lat": -26.557481098530513,
        "lon": 160.74169805779303,
        "alt_km": 546.2618774801576,
        "timestamp": "2025-12-20T07:33:50.460624+00:00",
        "meta_object_name": "DUBAISAT-2",
        "meta_object_id": "2013-066D",
        "meta_epoch": "2025-12-19T22:41:21.022080",
        "meta_mean_motion": 15.08420151,
        "meta_eccentricity": 0.00099502,
        "meta_inclination": 97.4442,
        "meta_ra_of_asc_node": 344.1305,
        "meta_arg_of_pericenter": 293.5024,
        "meta_mean_anomaly": 66.5159,
        "meta_ephemeris_type": 0,
        "meta_classification_type": "U",
        "meta_norad_cat_id": 39419,
        "meta_element_set_no": 999,
        "meta_rev_at_epoch": 65935,
        "meta_bstar": 0.00021921309,
        "meta_mean_motion_dot": 3.353e-05,
        "meta_mean_motion_ddot": 0,
        "tle_line1": "1 39419U 13066D   25353.94538220  .00003353  00000+0  21921-3 0  9994",
        "tle_line2": "2 39419  97.4442 344.1305 0009950 293.5024  66.5159 15.08420151659353"
      },
      "geometry": {
        "type": "Point",
        "coordinates": [
          160.74169805779303,
          -26.557481098530513
        ]
      }
    },
    {
      "type": "Feature",
      "properties": {
        "norad_id": 39574,
        "name": "GPM-CORE",
        "group": "resource",
        "lat": -64.94818652055338,
        "lon": 98.86631400868463,
        "alt_km": 432.92354353533847,
        "timestamp": "2025-12-20T07:33:50.460635+00:00",
        "meta_object_name": "GPM-CORE",
        "meta_object_id": "2014-009C",
        "meta_epoch": "2025-12-19T22:37:34.371552",
        "meta_mean_motion": 15.44568665,
        "meta_eccentricity": 0.00094175,
        "meta_inclination": 64.9719,
        "meta_ra_of_asc_node": 188.5606,
        "meta_arg_of_pericenter": 247.9507,
        "meta_mean_anomaly": 112.0633,
        "meta_ephemeris_type": 0,
        "meta_classification_type": "U",
        "meta_norad_cat_id": 39574,
        "meta_element_set_no": 999,
        "meta_rev_at_epoch": 67012,
        "meta_bstar": 0.00012609601,
        "meta_mean_motion_dot": 5.645e-05,
        "meta_mean_motion_ddot": 0,
        "tle_line1": "1 39574U 14009C   25353.94275893  .00005645  00000+0  12610-3 0  9999",
        "tle_line2": "2 39574  64.9719 188.5606 0009417 247.9507 112.0633 15.44568665670127"
      },
      "geometry": {
        "type": "Point",
        "coordinates": [
          98.86631400868463,
          -64.94818652055338
        ]
      }
    },
    {
      "type": "Feature",
      "properties": {
        "norad_id": 39634,
        "name": "SENTINEL-1A",
        "group": "resource",
        "lat": -63.82559073700012,
        "lon": 16.46083685453596,
        "alt_km": 703.7152755753068,
        "timestamp": "2025-12-20T07:33:50.460646+00:00",
        "meta_object_name": "SENTINEL-1A",
        "meta_object_id": "2014-016A",
        "meta_epoch": "2025-12-19T23:37:59.408832",
        "meta_mean_motion": 14.59201682,
        "meta_eccentricity": 0.00012543,
        "meta_inclination": 98.1796,
        "meta_ra_of_asc_node": 359.1193,
        "meta_arg_of_pericenter": 85.4707,
        "meta_mean_anomaly": 274.6636,
        "meta_ephemeris_type": 0,
        "meta_classification_type": "U",
        "meta_norad_cat_id": 39634,
        "meta_element_set_no": 999,
        "meta_rev_at_epoch": 62388,
        "meta_bstar": 9.698889e-06,
        "meta_mean_motion_dot": 0,
        "meta_mean_motion_ddot": 0,
        "tle_line1": "1 39634U 14016A   25353.98471538  .00000000  00000+0  96989-5 0  9995",
        "tle_line2": "2 39634  98.1796 359.1193 0001254  85.4707 274.6636 14.59201682623880"
      },
      "geometry": {
        "type": "Point",
        "coordinates": [
          16.46083685453596,
          -63.82559073700012
        ]
      }
    },
    {
      "type": "Feature",
      "properties": {
        "norad_id": 39731,
        "name": "KAZEOSAT 1",
        "group": "resource",
        "lat": 16.744092084656774,
        "lon": -111.41665751658657,
        "alt_km": 751.9107608137829,
        "timestamp": "2025-12-20T07:33:50.460657+00:00",
        "meta_object_name": "KAZEOSAT 1",
        "meta_object_id": "2014-024A",
        "meta_epoch": "2025-12-19T22:29:04.724736",
        "meta_mean_motion": 14.42065826,
        "meta_eccentricity": 0.00011661,
        "meta_inclination": 98.3433,
        "meta_ra_of_asc_node": 65.6831,
        "meta_arg_of_pericenter": 96.3703,
        "meta_mean_anomaly": 263.762,
        "meta_ephemeris_type": 0,
        "meta_classification_type": "U",
        "meta_norad_cat_id": 39731,
        "meta_element_set_no": 999,
        "meta_rev_at_epoch": 61272,
        "meta_bstar": 2.1723045e-05,
        "meta_mean_motion_dot": 2.8e-07,
        "meta_mean_motion_ddot": 0,
        "tle_line1": "1 39731U 14024A   25353.93686024  .00000028  00000+0  21723-4 0  9998",
        "tle_line2": "2 39731  98.3433  65.6831 0001166  96.3703 263.7620 14.42065826612728"
      },
      "geometry": {
        "type": "Point",
        "coordinates": [
          -111.41665751658657,
          16.744092084656774
        ]
      }
    },
    {
      "type": "Feature",
      "properties": {
        "norad_id": 39766,
        "name": "ALOS-2",
        "group": "resource",
        "lat": -14.565196727192715,
        "lon": 91.12752293865474,
        "alt_km": 636.0814258829696,
        "timestamp": "2025-12-20T07:33:50.460667+00:00",
        "meta_object_name": "ALOS-2",
        "meta_object_id": "2014-029A",
        "meta_epoch": "2025-12-19T21:53:28.319712",
        "meta_mean_motion": 14.79468452,
        "meta_eccentricity": 0.00014561,
        "meta_inclination": 97.9232,
        "meta_ra_of_asc_node": 88.6565,
        "meta_arg_of_pericenter": 98.5247,
        "meta_mean_anomaly": 261.613,
        "meta_ephemeris_type": 0,
        "meta_classification_type": "U",
        "meta_norad_cat_id": 39766,
        "meta_element_set_no": 999,
        "meta_rev_at_epoch": 62507,
        "meta_bstar": 0.00018916434,
        "meta_mean_motion_dot": 1.361e-05,
        "meta_mean_motion_ddot": 0,
        "tle_line1": "1 39766U 14029A   25353.91213333  .00001361  00000+0  18916-3 0  9998",
        "tle_line2": "2 39766  97.9232  88.6565 0001456  98.5247 261.6130 14.79468452625073"
      },
      "geometry": {
        "type": "Point",
        "coordinates": [
          91.12752293865474,
          -14.565196727192715
        ]
      }
    }
  ]
}